STARLINK-6335           
1 56527U 23065AA  26150.26953022  .00000310  00000+0  20799-4 0  9998
2 56527  43.0015 115.3771 0000913 263.6190  96.4558 15.27576499169036
STARLINK-6337           
1 56528U 23065AB  26150.91570500 -.00000869  00000+0 -22072-4 0  9994
2 56528  43.0008 111.6256 0000692 278.4089  81.6684 15.27559625169130
STARLINK-6307           
1 56529U 23065AC  26151.16668980  .00031398  00000+0  11466-2 0  9995
2 56529  43.0015  95.6601 0001359 256.9178 345.7247 15.27553202  5846
STARLINK-6318           
1 56530U 23065AD  26151.20907279  .00001094  00000+0  49261-4 0  9995
2 56530  43.0055  80.9618 0001382 270.0245  90.0449 15.27583058169516
STARLINK-6280           
1 56531U 23065AE  26150.88470481  .00000699  00000+0  34939-4 0  9995
2 56531  43.0058  94.1398 0001320 262.7651  97.3051 15.27576366169336
STARLINK-6319           
1 56532U 23065AF  26150.87700163  .00002021  00000+0  82932-4 0  9995
2 56532  43.0022  94.0814 0000906 265.6927  94.3821 15.27579408169339
STARLINK-6310           
1 56533U 23065AG  26150.86286344  .00000556  00000+0  29718-4 0  9999
2 56533  43.0013  93.9799 0000777 266.9806  93.0957 15.27575663169331
STARLINK-6308           
1 56534U 23065AH  26151.20778418  .00000405  00000+0  24230-4 0  9994
2 56534  43.0029  92.2735 0000880 259.9879 100.0873 15.27576200169387
STARLINK-6309           
1 56535U 23065AJ  26150.40528973  .00001264  00000+0  55445-4 0  9991
2 56535  43.0040 125.1528 0001488 266.7029  93.3652 15.27577515168934
STARLINK-6312           
1 56536U 23065AK  26150.94251924  .00000419  00000+0  24755-4 0  9991
2 56536  43.0027 122.3052 0000964 280.2015  79.8728 15.27576383169010
STARLINK-6311           
1 56537U 23065AL  26150.34376231 -.00001545  00000+0 -46639-4 0  9993
2 56537  43.0027 125.5507 0001125 264.3646  95.7078 15.27585544168927
STARLINK-6314           
1 56538U 23065AM  26150.99749196  .00000729  00000+0  36016-4 0  9998
2 56538  43.0003  93.2692 0000780 292.6797  67.3972 15.27574945169354
STARLINK-6135           
1 56539U 23065AN  26150.95024257  .00001527  00000+0  65017-4 0  9999
2 56539  43.0029 122.3619 0000886 253.4268 106.6487 15.27565138169016
STARLINK-6136           
1 56540U 23065AP  26150.36559675 -.00003779  00000+0 -12782-3 0  9996
2 56540  43.0023 125.7178 0001001 278.4265  81.6473 15.27590908168922
STARLINK-6249           
1 56541U 23065AQ  26150.25588343 -.00000449  00000+0 -67757-5 0  9994
2 56541  43.0035 123.1979 0001596 256.2949 103.7726 15.27566666168942
STARLINK-6266           
1 56542U 23065AR  26150.35789130  .00001183  00000+0  52519-4 0  9996
2 56542  43.0000 125.6526 0001339 269.6193  90.4505 15.27580187168923
STARLINK-6226           
1 56544U 23065AT  26150.99297921  .00000338  00000+0  21810-4 0  9991
2 56544  43.0009 118.4212 0001118 265.5924  94.4799 15.27576059169066
STARLINK-6086           
1 56545U 23065AU  26150.96357061  .00000316  00000+0  21009-4 0  9997
2 56545  43.0057 119.0525 0001699 275.3673  84.6985 15.27575234169059
STARLINK-6187           
1 56546U 23065AV  26150.97127980  .00030926  00000+0  11280-2 0  9992
2 56546  43.0032 119.1068 0001562 264.9379  95.1295 15.27597315169057
STARLINK-6291           
1 56547U 23065AW  26150.94944441  .00005889  00000+0  22357-3 0  9997
2 56547  43.0039 118.9400 0000337 202.7992 157.2844 15.27544428169059
STARLINK-6244           
1 56548U 23065AX  26150.91104424  .00002479  00000+0  99633-4 0  9998
2 56548  43.0050 119.5139 0001520 276.4171  83.6508 15.27563455169040
STARLINK-6263           
1 56549U 23065AY  26150.95330366  .00002528  00000+0  10139-3 0  9997
2 56549  43.0041 118.9704 0001272 284.2295  75.8415 15.27567735169056
STARLINK-6255           
1 56550U 23065AZ  26149.99690449  .00001214  00000+0  53689-4 0  9991
2 56550  43.0048 124.6940 0003041 298.5858  61.4687 15.27569954168900
STARLINK-6199           
1 56551U 23065BA  26150.96099918  .00000190  00000+0  16421-4 0  9990
2 56551  43.0048 119.0245 0001048 285.0711  75.0025 15.27573205169059
STARLINK-5802           
1 56552U 23065BB  26150.77254838  .00000421  00000+0  24855-4 0  9991
2 56552  43.0054 120.1905 0002372 290.7190  69.3408 15.27576012169025
STARLINK-6074           
1 56553U 23065BC  26150.94172515  .00008056  00000+0  30220-3 0  9996
2 56553  43.0019 118.8771 0001554 266.3571  93.7103 15.27552273169054
STARLINK-6295           
1 56554U 23065BD  26150.97256339 -.00000002  00000+0  94576-5 0  9997
2 56554  43.0053 119.1117 0001874 274.1306  85.9332 15.27576013169054
STARLINK-6252           
1 56555U 23065BE  26150.99683003 -.00000128  00000+0  48964-5 0  9991
2 56555  43.0031 118.4389 0001801 271.8374  88.2271 15.27574973169065
STARLINK-5302           
1 56556U 23065BF  26150.35709999  .00000644  00000+0  32923-4 0  9994
2 56556  43.0027 122.2352 0000569 302.9127  57.1670 15.27577297168964
STARLINK-6265           
1 56557U 23065BG  26150.95714307  .00000222  00000+0  17598-4 0  9993
2 56557  43.0068 118.9927 0001455 272.6345  87.4340 15.27574973169059
