OBJECT_NAME,OBJECT_ID,EPOCH,MEAN_MOTION,ECCENTRICITY,INCLINATION,RA_OF_ASC_NODE,ARG_OF_PERICENTER,MEAN_ANOMALY,EPHEMERIS_TYPE,CLASSIFICATION_TYPE,NORAD_CAT_ID,ELEMENT_SET_NO,REV_AT_EPOCH,BSTAR,MEAN_MOTION_DOT,MEAN_MOTION_DDOT
STARLINK-6335,2023-065AA,2026-05-30T06:28:07.411008,15.27576499,.00009135,43.0015,115.3771,263.6190,96.4558,0,U,56527,999,16903,.20798727E-4,.31E-5,0
STARLINK-6337,2023-065AB,2026-05-30T21:58:36.912000,15.27559625,.0000692,43.0008,111.6256,278.4089,81.6684,0,U,56528,999,16913,-.22072E-4,-.869E-5,0
STARLINK-6307,2023-065AC,2026-05-31T04:00:01.998720,15.27553202,.0001359,43.0015,95.6601,256.9178,345.7247,0,U,56529,999,584,.11466E-2,.31398E-3,0
STARLINK-6318,2023-065AD,2026-05-31T05:01:03.889056,15.27583058,.0001382,43.0055,80.9618,270.0245,90.0449,0,U,56530,999,16951,.49261E-4,.1094E-4,0
STARLINK-6280,2023-065AE,2026-05-30T21:13:58.495584,15.27576366,.00013201,43.0058,94.1398,262.7651,97.3051,0,U,56531,999,16933,.34939419E-4,.699E-5,0
STARLINK-6319,2023-065AF,2026-05-30T21:02:52.940832,15.27579408,.00009064,43.0022,94.0814,265.6927,94.3821,0,U,56532,999,16933,.82931988E-4,.2021E-4,0
STARLINK-6310,2023-065AG,2026-05-30T20:42:31.401216,15.27575663,.00007773,43.0013,93.9799,266.9806,93.0957,0,U,56533,999,16933,.29718186E-4,.556E-5,0
STARLINK-6308,2023-065AH,2026-05-31T04:59:12.553152,15.27576200,.000088,43.0029,92.2735,259.9879,100.0873,0,U,56534,999,16938,.2423E-4,.405E-5,0
STARLINK-6309,2023-065AJ,2026-05-30T09:43:37.032672,15.27577515,.0001488,43.0040,125.1528,266.7029,93.3652,0,U,56535,999,16893,.55444841E-4,.1264E-4,0
STARLINK-6312,2023-065AK,2026-05-30T22:37:13.662336,15.27576383,.0000964,43.0027,122.3052,280.2015,79.8728,0,U,56536,999,16901,.24755E-4,.419E-5,0
STARLINK-6311,2023-065AL,2026-05-30T08:15:01.063584,15.27585544,.00011257,43.0027,125.5507,264.3646,95.7078,0,U,56537,999,16892,-.46639475E-4,-.1545E-4,0
STARLINK-6314,2023-065AM,2026-05-30T23:56:23.305344,15.27574945,.000078,43.0003,93.2692,292.6797,67.3972,0,U,56538,999,16935,.36016E-4,.729E-5,0
STARLINK-6135,2023-065AN,2026-05-30T22:48:20.958048,15.27565138,.0000886,43.0029,122.3619,253.4268,106.6487,0,U,56539,999,16901,.65017E-4,.1527E-4,0
STARLINK-6136,2023-065AP,2026-05-30T08:46:27.559200,15.27590908,.0001001,43.0023,125.7178,278.4265,81.6473,0,U,56540,999,16892,-.12782344E-3,-.3779E-4,0
STARLINK-6249,2023-065AQ,2026-05-30T06:08:28.328352,15.27566666,.00015965,43.0035,123.1979,256.2949,103.7726,0,U,56541,999,16894,-.6775707E-5,-.449E-5,0
STARLINK-6266,2023-065AR,2026-05-30T08:35:21.808320,15.27580187,.00013399,43.0000,125.6526,269.6193,90.4505,0,U,56542,999,16892,.52518889E-4,.1183E-4,0
STARLINK-6226,2023-065AT,2026-05-30T23:49:53.403744,15.27576059,.0001118,43.0009,118.4212,265.5924,94.4799,0,U,56544,999,16906,.2181E-4,.338E-5,0
STARLINK-6086,2023-065AU,2026-05-30T23:07:32.500704,15.27575234,.0001699,43.0057,119.0525,275.3673,84.6985,0,U,56545,999,16905,.21009E-4,.316E-5,0
STARLINK-6187,2023-065AV,2026-05-30T23:18:38.574720,15.27597315,.0001562,43.0032,119.1068,264.9379,95.1295,0,U,56546,999,16905,.1128E-2,.30926E-3,0
STARLINK-6291,2023-065AW,2026-05-30T22:47:11.997024,15.27544428,.0000337,43.0039,118.9400,202.7992,157.2844,0,U,56547,999,16905,.22357E-3,.5889E-4,0
STARLINK-6244,2023-065AX,2026-05-30T21:51:54.222336,15.27563455,.000152,43.0050,119.5139,276.4171,83.6508,0,U,56548,999,16904,.99633E-4,.2479E-4,0
STARLINK-6263,2023-065AY,2026-05-30T22:52:45.436224,15.27567735,.0001272,43.0041,118.9704,284.2295,75.8415,0,U,56549,999,16905,.10139E-3,.2528E-4,0
STARLINK-6255,2023-065AZ,2026-05-29T23:55:32.547936,15.27569954,.00030416,43.0048,124.6940,298.5858,61.4687,0,U,56550,999,16890,.53689278E-4,.1214E-4,0
STARLINK-6199,2023-065BA,2026-05-30T23:03:50.329152,15.27573205,.0001048,43.0048,119.0245,285.0711,75.0025,0,U,56551,999,16905,.16421E-4,.19E-5,0
STARLINK-5802,2023-065BB,2026-05-30T18:32:28.180032,15.27576012,.00023728,43.0054,120.1905,290.7190,69.3408,0,U,56552,999,16902,.24855016E-4,.421E-5,0
STARLINK-6074,2023-065BC,2026-05-30T22:36:05.052960,15.27552273,.0001554,43.0019,118.8771,266.3571,93.7103,0,U,56553,999,16905,.3022E-3,.8056E-4,0
STARLINK-6295,2023-065BD,2026-05-30T23:20:29.476896,15.27576013,.0001874,43.0053,119.1117,274.1306,85.9332,0,U,56554,999,16905,.94576E-5,-.2E-7,0
STARLINK-6252,2023-065BE,2026-05-30T23:55:26.114592,15.27574973,.0001801,43.0031,118.4389,271.8374,88.2271,0,U,56555,999,16906,.48964E-5,-.128E-5,0
STARLINK-5302,2023-065BF,2026-05-30T08:34:13.439136,15.27577297,.00005698,43.0027,122.2352,302.9127,57.1670,0,U,56556,999,16896,.32922964E-4,.644E-5,0
STARLINK-6265,2023-065BG,2026-05-30T22:58:17.161248,15.27574973,.0001455,43.0068,118.9927,272.6345,87.4340,0,U,56557,999,16905,.17598E-4,.222E-5,0
